CCSDS_OMM_VERS = 2.0
CREATION_DATE  = 
ORIGINATOR     = 

OBJECT_NAME    = SL-14 R/B
OBJECT_ID      = 1991-042B
CENTER_NAME    = EARTH
REF_FRAME      = TEME
TIME_SYSTEM    = UTC
MEAN_ELEMENT_THEORY = SGP/SGP4

EPOCH          = 2026-03-01T12:28:10.677792
MEAN_MOTION    = 14.81819589
ECCENTRICITY   = .0015566
INCLINATION    = 82.4909
RA_OF_ASC_NODE = 227.8443
ARG_OF_PERICENTER = 267.8896
MEAN_ANOMALY   = 92.0536

EPHEMERIS_TYPE = 0
CLASSIFICATION_TYPE = U
NORAD_CAT_ID   = 21423
ELEMENT_SET_NO = 999
REV_AT_EPOCH   = 85186
BSTAR          = .69554E-4
MEAN_MOTION_DOT = .573E-5
MEAN_MOTION_DDOT = 0

CCSDS_OMM_VERS = 2.0
CREATION_DATE  = 
ORIGINATOR     = 

OBJECT_NAME    = ERS-1
OBJECT_ID      = 1991-050A
CENTER_NAME    = EARTH
REF_FRAME      = TEME
TIME_SYSTEM    = UTC
MEAN_ELEMENT_THEORY = SGP/SGP4

EPOCH          = 2026-03-01T11:52:49.021248
MEAN_MOTION    = 14.39441947
ECCENTRICITY   = .0031195
INCLINATION    = 98.7887
RA_OF_ASC_NODE = 78.5236
ARG_OF_PERICENTER = 225.1441
MEAN_ANOMALY   = 134.7212

EPHEMERIS_TYPE = 0
CLASSIFICATION_TYPE = U
NORAD_CAT_ID   = 21574
ELEMENT_SET_NO = 999
REV_AT_EPOCH   = 81455
BSTAR          = .14053E-3
MEAN_MOTION_DOT = .393E-5
MEAN_MOTION_DDOT = 0

CCSDS_OMM_VERS = 2.0
CREATION_DATE  = 
ORIGINATOR     = 

OBJECT_NAME    = ARIANE 40 R/B
OBJECT_ID      = 1991-050F
CENTER_NAME    = EARTH
REF_FRAME      = TEME
TIME_SYSTEM    = UTC
MEAN_ELEMENT_THEORY = SGP/SGP4

EPOCH          = 2026-03-01T03:35:06.552960
MEAN_MOTION    = 14.42886207
ECCENTRICITY   = .00043753
INCLINATION    = 98.2031
RA_OF_ASC_NODE = 112.7057
ARG_OF_PERICENTER = 99.7057
MEAN_ANOMALY   = 260.4628

EPHEMERIS_TYPE = 0
CLASSIFICATION_TYPE = U
NORAD_CAT_ID   = 21610
ELEMENT_SET_NO = 999
REV_AT_EPOCH   = 81776
BSTAR          = .11003603E-3
MEAN_MOTION_DOT = .326E-5
MEAN_MOTION_DDOT = 0

CCSDS_OMM_VERS = 2.0
CREATION_DATE  = 
ORIGINATOR     = 

OBJECT_NAME    = INTERCOSMOS 25
OBJECT_ID      = 1991-086A
CENTER_NAME    = EARTH
REF_FRAME      = TEME
TIME_SYSTEM    = UTC
MEAN_ELEMENT_THEORY = SGP/SGP4

EPOCH          = 2026-03-01T03:42:21.156192
MEAN_MOTION    = 12.11971750
ECCENTRICITY   = .1487086
INCLINATION    = 82.6068
RA_OF_ASC_NODE = 315.1664
ARG_OF_PERICENTER = 135.3203
MEAN_ANOMALY   = 237.7874

EPHEMERIS_TYPE = 0
CLASSIFICATION_TYPE = U
NORAD_CAT_ID   = 21819
ELEMENT_SET_NO = 999
REV_AT_EPOCH   = 49565
BSTAR          = .3085849E-3
MEAN_MOTION_DOT = .1607E-4
MEAN_MOTION_DDOT = 0

CCSDS_OMM_VERS = 2.0
CREATION_DATE  = 
ORIGINATOR     = 

OBJECT_NAME    = SL-8 R/B
OBJECT_ID      = 1992-008B
CENTER_NAME    = EARTH
REF_FRAME      = TEME
TIME_SYSTEM    = UTC
MEAN_ELEMENT_THEORY = SGP/SGP4

EPOCH          = 2026-03-01T03:40:18.130368
MEAN_MOTION    = 13.75969884
ECCENTRICITY   = .00351284
INCLINATION    = 82.9229
RA_OF_ASC_NODE = 274.1302
ARG_OF_PERICENTER = 156.6274
MEAN_ANOMALY   = 322.8579

EPHEMERIS_TYPE = 0
CLASSIFICATION_TYPE = U
NORAD_CAT_ID   = 21876
ELEMENT_SET_NO = 999
REV_AT_EPOCH   = 70824
BSTAR          = -.5332131E-5
MEAN_MOTION_DOT = .1E-6
MEAN_MOTION_DDOT = 0

CCSDS_OMM_VERS = 2.0
CREATION_DATE  = 
ORIGINATOR     = 

OBJECT_NAME    = SL-8 R/B
OBJECT_ID      = 1992-020B
CENTER_NAME    = EARTH
REF_FRAME      = TEME
TIME_SYSTEM    = UTC
MEAN_ELEMENT_THEORY = SGP/SGP4

EPOCH          = 2026-03-01T09:38:00.851136
MEAN_MOTION    = 13.75548378
ECCENTRICITY   = .0027993
INCLINATION    = 82.9341
RA_OF_ASC_NODE = 159.9135
ARG_OF_PERICENTER = 322.8949
MEAN_ANOMALY   = 105.4133

EPHEMERIS_TYPE = 0
CLASSIFICATION_TYPE = U
NORAD_CAT_ID   = 21938
ELEMENT_SET_NO = 999
REV_AT_EPOCH   = 69999
BSTAR          = .60954E-4
MEAN_MOTION_DOT = .74E-6
MEAN_MOTION_DDOT = 0

CCSDS_OMM_VERS = 2.0
CREATION_DATE  = 
ORIGINATOR     = 

OBJECT_NAME    = USA 81
OBJECT_ID      = 1992-023A
CENTER_NAME    = EARTH
REF_FRAME      = TEME
TIME_SYSTEM    = UTC
MEAN_ELEMENT_THEORY = SGP/SGP4

EPOCH          = 2026-03-01T06:37:15.142944
MEAN_MOTION    = 14.32364661
ECCENTRICITY   = .0002686
INCLINATION    = 85.0101
RA_OF_ASC_NODE = 136.2943
ARG_OF_PERICENTER = 84.6374
MEAN_ANOMALY   = 275.5125

EPHEMERIS_TYPE = 0
CLASSIFICATION_TYPE = U
NORAD_CAT_ID   = 21949
ELEMENT_SET_NO = 999
REV_AT_EPOCH   = 9358
BSTAR          = .65939E-4
MEAN_MOTION_DOT = .198E-5
MEAN_MOTION_DDOT = 0

CCSDS_OMM_VERS = 2.0
CREATION_DATE  = 
ORIGINATOR     = 

OBJECT_NAME    = COSMOS 2219
OBJECT_ID      = 1992-076A
CENTER_NAME    = EARTH
REF_FRAME      = TEME
TIME_SYSTEM    = UTC
MEAN_ELEMENT_THEORY = SGP/SGP4

EPOCH          = 2026-03-01T09:16:00.463008
MEAN_MOTION    = 14.14087532
ECCENTRICITY   = .0019415
INCLINATION    = 71.0611
RA_OF_ASC_NODE = 35.4251
ARG_OF_PERICENTER = 218.1159
MEAN_ANOMALY   = 141.8591

EPHEMERIS_TYPE = 0
CLASSIFICATION_TYPE = U
NORAD_CAT_ID   = 22219
ELEMENT_SET_NO = 999
REV_AT_EPOCH   = 71720
BSTAR          = .20866E-3
MEAN_MOTION_DOT = .351E-5
MEAN_MOTION_DDOT = 0

CCSDS_OMM_VERS = 2.0
CREATION_DATE  = 
ORIGINATOR     = 

OBJECT_NAME    = SL-16 R/B
OBJECT_ID      = 1992-076B
CENTER_NAME    = EARTH
REF_FRAME      = TEME
TIME_SYSTEM    = UTC
MEAN_ELEMENT_THEORY = SGP/SGP4

EPOCH          = 2026-03-01T12:10:30.820224
MEAN_MOTION    = 14.16859237
ECCENTRICITY   = .0010723
INCLINATION    = 70.9995
RA_OF_ASC_NODE = 205.6081
ARG_OF_PERICENTER = 111.3730
MEAN_ANOMALY   = 311.2515

EPHEMERIS_TYPE = 0
CLASSIFICATION_TYPE = U
NORAD_CAT_ID   = 22220
ELEMENT_SET_NO = 999
REV_AT_EPOCH   = 72067
BSTAR          = .11322E-3
MEAN_MOTION_DOT = .179E-5
MEAN_MOTION_DDOT = 0

CCSDS_OMM_VERS = 2.0
CREATION_DATE  = 
ORIGINATOR     = 

OBJECT_NAME    = COSMOS 2221
OBJECT_ID      = 1992-080A
CENTER_NAME    = EARTH
REF_FRAME      = TEME
TIME_SYSTEM    = UTC
MEAN_ELEMENT_THEORY = SGP/SGP4

EPOCH          = 2026-03-01T01:50:43.782432
MEAN_MOTION    = 14.96161955
ECCENTRICITY   = .00132874
INCLINATION    = 82.5022
RA_OF_ASC_NODE = 287.3321
ARG_OF_PERICENTER = 217.5757
MEAN_ANOMALY   = 142.4538

EPHEMERIS_TYPE = 0
CLASSIFICATION_TYPE = U
NORAD_CAT_ID   = 22236
ELEMENT_SET_NO = 999
REV_AT_EPOCH   = 77950
BSTAR          = .16331336E-3
MEAN_MOTION_DOT = .1867E-4
MEAN_MOTION_DDOT = 0

CCSDS_OMM_VERS = 2.0
CREATION_DATE  = 
ORIGINATOR     = 

OBJECT_NAME    = SL-16 R/B
OBJECT_ID      = 1992-093B
CENTER_NAME    = EARTH
REF_FRAME      = TEME
TIME_SYSTEM    = UTC
MEAN_ELEMENT_THEORY = SGP/SGP4

EPOCH          = 2026-03-01T07:54:51.098976
MEAN_MOTION    = 14.15449751
ECCENTRICITY   = .00062
INCLINATION    = 71.0235
RA_OF_ASC_NODE = 21.8141
ARG_OF_PERICENTER = 302.6562
MEAN_ANOMALY   = 57.3963

EPHEMERIS_TYPE = 0
CLASSIFICATION_TYPE = U
NORAD_CAT_ID   = 22285
ELEMENT_SET_NO = 999
REV_AT_EPOCH   = 71197
BSTAR          = -.82513E-5
MEAN_MOTION_DOT = -.64E-6
MEAN_MOTION_DDOT = 0

CCSDS_OMM_VERS = 2.0
CREATION_DATE  = 
ORIGINATOR     = 

OBJECT_NAME    = COSMOS 2228
OBJECT_ID      = 1992-094A
CENTER_NAME    = EARTH
REF_FRAME      = TEME
TIME_SYSTEM    = UTC
MEAN_ELEMENT_THEORY = SGP/SGP4

EPOCH          = 2026-03-01T11:59:55.770720
MEAN_MOTION    = 14.97141261
ECCENTRICITY   = .0017317
INCLINATION    = 82.5144
RA_OF_ASC_NODE = 245.1535
ARG_OF_PERICENTER = 333.8250
MEAN_ANOMALY   = 26.2095

EPHEMERIS_TYPE = 0
CLASSIFICATION_TYPE = U
NORAD_CAT_ID   = 22286
ELEMENT_SET_NO = 999
REV_AT_EPOCH   = 77483
BSTAR          = .21436E-3
MEAN_MOTION_DOT = .2507E-4
MEAN_MOTION_DDOT = 0

