SL-14 R/B               
1 21423U 91042B   26060.51956803  .00000573  00000+0  69554-4 0  9996
2 21423  82.4909 227.8443 0015566 267.8896  92.0536 14.81819589851862
ERS-1                   
1 21574U 91050A   26060.49501182  .00000393  00000+0  14053-3 0  9998
2 21574  98.7887  78.5236 0031195 225.1441 134.7212 14.39441947814556
ARIANE 40 R/B           
1 21610U 91050F   26060.14938140  .00000326  00000+0  11004-3 0  9998
2 21610  98.2031 112.7057 0004375  99.7057 260.4628 14.42886207817763
INTERCOSMOS 25          
1 21819U 91086A   26060.15441153  .00001607  00000+0  30858-3 0  9993
2 21819  82.6068 315.1664 1487086 135.3203 237.7874 12.11971750495651
SL-8 R/B                
1 21876U 92008B   26060.15298762  .00000010  00000+0 -53321-5 0  9997
2 21876  82.9229 274.1302 0035128 156.6274 322.8579 13.75969884708244
SL-8 R/B                
1 21938U 92020B   26060.40139874  .00000074  00000+0  60954-4 0  9994
2 21938  82.9341 159.9135 0027993 322.8949 105.4133 13.75548378699992
USA 81                  
1 21949U 92023A   26060.27586971  .00000198  00000+0  65939-4 0  9993
2 21949  85.0101 136.2943 0002686  84.6374 275.5125 14.32364661 93582
COSMOS 2219             
1 22219U 92076A   26060.38611647  .00000351  00000+0  20866-3 0  9993
2 22219  71.0611  35.4251 0019415 218.1159 141.8591 14.14087532717202
SL-16 R/B               
1 22220U 92076B   26060.50730116  .00000179  00000+0  11322-3 0  9997
2 22220  70.9995 205.6081 0010723 111.3730 311.2515 14.16859237720676
COSMOS 2221             
1 22236U 92080A   26060.07689563  .00001867  00000+0  16331-3 0  9990
2 22236  82.5022 287.3321 0013287 217.5757 142.4538 14.96161955779509
SL-16 R/B               
1 22285U 92093B   26060.32975809 -.00000064  00000+0 -82513-5 0  9994
2 22285  71.0235  21.8141 0006200 302.6562  57.3963 14.15449751711977
COSMOS 2228             
1 22286U 92094A   26060.49995105  .00002507  00000+0  21436-3 0  9992
2 22286  82.5144 245.1535 0017317 333.8250  26.2095 14.97141261774833
